QIANFAN-52              
1 62253U 24232S   26064.82885020  .00000089  00000+0  11943-3 0  9999
2 62253  89.0054  32.7200 0014090 319.1253  40.8840 13.51000887 79168
QIANFAN-53              
1 62254U 24232T   26064.80824598  .00000079  00000+0  10402-3 0  9999
2 62254  89.0062  32.8328 0013012 321.0056  39.0156 13.51003595 79121
QIANFAN-54              
1 62255U 24232U   26064.84942633  .00000084  00000+0  11210-3 0  9999
2 62255  89.0053  32.4999 0003097  39.1029 321.0346 13.51002981110636
QIANFAN-55              
1 62785U 25016A   26064.80141612  .00000062  00000+0  77326-4 0  9999
2 62785  88.9692  94.6162 0019434 107.2771 253.0509 13.50996334 58400
QIANFAN-56              
1 62786U 25016B   26064.74372419  .00000049  00000+0  56315-4 0  9994
2 62786  88.9665  94.4362 0018063 109.4424 250.8681 13.50998192 58441
QIANFAN-57              
1 62787U 25016C   26064.77670088  .00000042  00000+0  45754-4 0  9999
2 62787  88.9696  94.6121 0001370  99.3800 260.7506 13.50997073 58419
QIANFAN-58              
1 62788U 25016D   26064.74783534  .00000048  00000+0  55356-4 0  9993
2 62788  88.9666  94.4211 0016020 102.5874 257.7070 13.50998709 58454
QIANFAN-59              
1 62789U 25016E   26064.77267596  .00000049  00000+0  57081-4 0  9990
2 62789  88.9689  94.5120 0016366 105.8361 254.4596 13.50994590 58451
QIANFAN-60              
1 62790U 25016F   26064.80560527  .00000049  00000+0  57347-4 0  9991
2 62790  88.9670  94.4641 0017935 102.7970 257.5187 13.50992548 58445
QIANFAN-61              
1 62791U 25016G   26064.61459919 -.01743446  00000+0 -30832+1 0  9997
2 62791  88.9734  94.7032 0014066  94.6220 265.6536 13.46648286 58432
QIANFAN-62              
1 62792U 25016H   26064.76850569  .00000034  00000+0  33071-4 0  9998
2 62792  88.9684  94.5110 0018235 102.6217 257.6974 13.50996547 58449
QIANFAN-63              
1 62793U 25016J   26064.79322777  .00000043  00000+0  48040-4 0  9999
2 62793  88.9691  94.4655 0018279 107.3310 252.9843 13.50995212 58480
QIANFAN-64              
1 62794U 25016K   26064.76033293  .00000010  00000+0 -35851-5 0  9991
2 62794  88.9678  94.4318 0016237 101.0463 259.2515 13.51005474 58472
QIANFAN-65              
1 62795U 25016L   26064.75612456  .00000025  00000+0  19946-4 0  9996
2 62795  88.9674  94.4553 0016088 102.5722 257.7230 13.51008730 58451
QIANFAN-66              
1 62796U 25016M   26064.78493237  .00000034  00000+0  33051-4 0  9997
2 62796  88.9694  94.4387 0017203  98.7621 261.5479 13.50996881 58509
QIANFAN-67              
1 62797U 25016N   26064.78899287  .00000045  00000+0  50790-4 0  9994
2 62797  88.9684  94.4557 0017147 104.7769 255.5284 13.50995300 58474
QIANFAN-68              
1 62798U 25016P   26064.78090285  .00000039  00000+0  40673-4 0  9998
2 62798  88.9688  94.5048 0017214 103.2690 257.0383 13.51005226 58452
