[{"OBJECT_NAME":"QIANFAN-52","OBJECT_ID":"2024-232S","EPOCH":"2026-03-05T19:53:32.657280","MEAN_MOTION":13.51000887,"ECCENTRICITY":0.001409,"INCLINATION":89.0054,"RA_OF_ASC_NODE":32.72,"ARG_OF_PERICENTER":319.1253,"MEAN_ANOMALY":40.884,"EPHEMERIS_TYPE":0,"CLASSIFICATION_TYPE":"U","NORAD_CAT_ID":62253,"ELEMENT_SET_NO":999,"REV_AT_EPOCH":7916,"BSTAR":0.00011943,"MEAN_MOTION_DOT":8.9e-7,"MEAN_MOTION_DDOT":0},{"OBJECT_NAME":"QIANFAN-53","OBJECT_ID":"2024-232T","EPOCH":"2026-03-05T19:23:52.452672","MEAN_MOTION":13.51003595,"ECCENTRICITY":0.0013012,"INCLINATION":89.0062,"RA_OF_ASC_NODE":32.8328,"ARG_OF_PERICENTER":321.0056,"MEAN_ANOMALY":39.0156,"EPHEMERIS_TYPE":0,"CLASSIFICATION_TYPE":"U","NORAD_CAT_ID":62254,"ELEMENT_SET_NO":999,"REV_AT_EPOCH":7912,"BSTAR":0.00010402,"MEAN_MOTION_DOT":7.9e-7,"MEAN_MOTION_DDOT":0},{"OBJECT_NAME":"QIANFAN-54","OBJECT_ID":"2024-232U","EPOCH":"2026-03-05T20:23:10.434912","MEAN_MOTION":13.51002981,"ECCENTRICITY":0.0003097,"INCLINATION":89.0053,"RA_OF_ASC_NODE":32.4999,"ARG_OF_PERICENTER":39.1029,"MEAN_ANOMALY":321.0346,"EPHEMERIS_TYPE":0,"CLASSIFICATION_TYPE":"U","NORAD_CAT_ID":62255,"ELEMENT_SET_NO":999,"REV_AT_EPOCH":11063,"BSTAR":0.0001121,"MEAN_MOTION_DOT":8.4e-7,"MEAN_MOTION_DDOT":0},{"OBJECT_NAME":"QIANFAN-55","OBJECT_ID":"2025-016A","EPOCH":"2026-03-05T19:14:02.352768","MEAN_MOTION":13.50996334,"ECCENTRICITY":0.0019434,"INCLINATION":88.9692,"RA_OF_ASC_NODE":94.6162,"ARG_OF_PERICENTER":107.2771,"MEAN_ANOMALY":253.0509,"EPHEMERIS_TYPE":0,"CLASSIFICATION_TYPE":"U","NORAD_CAT_ID":62785,"ELEMENT_SET_NO":999,"REV_AT_EPOCH":5840,"BSTAR":7.7326e-5,"MEAN_MOTION_DOT":6.2e-7,"MEAN_MOTION_DDOT":0},{"OBJECT_NAME":"QIANFAN-56","OBJECT_ID":"2025-016B","EPOCH":"2026-03-05T17:50:57.770016","MEAN_MOTION":13.50998192,"ECCENTRICITY":0.0018063,"INCLINATION":88.9665,"RA_OF_ASC_NODE":94.4362,"ARG_OF_PERICENTER":109.4424,"MEAN_ANOMALY":250.8681,"EPHEMERIS_TYPE":0,"CLASSIFICATION_TYPE":"U","NORAD_CAT_ID":62786,"ELEMENT_SET_NO":999,"REV_AT_EPOCH":5844,"BSTAR":5.6315e-5,"MEAN_MOTION_DOT":4.9e-7,"MEAN_MOTION_DDOT":0},{"OBJECT_NAME":"QIANFAN-57","OBJECT_ID":"2025-016C","EPOCH":"2026-03-05T18:38:26.956032","MEAN_MOTION":13.50997073,"ECCENTRICITY":0.000137,"INCLINATION":88.9696,"RA_OF_ASC_NODE":94.6121,"ARG_OF_PERICENTER":99.38,"MEAN_ANOMALY":260.7506,"EPHEMERIS_TYPE":0,"CLASSIFICATION_TYPE":"U","NORAD_CAT_ID":62787,"ELEMENT_SET_NO":999,"REV_AT_EPOCH":5841,"BSTAR":4.5754e-5,"MEAN_MOTION_DOT":4.2e-7,"MEAN_MOTION_DDOT":0},{"OBJECT_NAME":"QIANFAN-58","OBJECT_ID":"2025-016D","EPOCH":"2026-03-05T17:56:52.973376","MEAN_MOTION":13.50998709,"ECCENTRICITY":0.001602,"INCLINATION":88.9666,"RA_OF_ASC_NODE":94.4211,"ARG_OF_PERICENTER":102.5874,"MEAN_ANOMALY":257.707,"EPHEMERIS_TYPE":0,"CLASSIFICATION_TYPE":"U","NORAD_CAT_ID":62788,"ELEMENT_SET_NO":999,"REV_AT_EPOCH":5845,"BSTAR":5.5356e-5,"MEAN_MOTION_DOT":4.8e-7,"MEAN_MOTION_DDOT":0},{"OBJECT_NAME":"QIANFAN-59","OBJECT_ID":"2025-016E","EPOCH":"2026-03-05T18:32:39.202944","MEAN_MOTION":13.5099459,"ECCENTRICITY":0.0016366,"INCLINATION":88.9689,"RA_OF_ASC_NODE":94.512,"ARG_OF_PERICENTER":105.8361,"MEAN_ANOMALY":254.4596,"EPHEMERIS_TYPE":0,"CLASSIFICATION_TYPE":"U","NORAD_CAT_ID":62789,"ELEMENT_SET_NO":999,"REV_AT_EPOCH":5845,"BSTAR":5.7081e-5,"MEAN_MOTION_DOT":4.9e-7,"MEAN_MOTION_DDOT":0},{"OBJECT_NAME":"QIANFAN-60","OBJECT_ID":"2025-016F","EPOCH":"2026-03-05T19:20:04.295328","MEAN_MOTION":13.50992548,"ECCENTRICITY":0.0017935,"INCLINATION":88.967,"RA_OF_ASC_NODE":94.4641,"ARG_OF_PERICENTER":102.797,"MEAN_ANOMALY":257.5187,"EPHEMERIS_TYPE":0,"CLASSIFICATION_TYPE":"U","NORAD_CAT_ID":62790,"ELEMENT_SET_NO":999,"REV_AT_EPOCH":5844,"BSTAR":5.7347e-5,"MEAN_MOTION_DOT":4.9e-7,"MEAN_MOTION_DDOT":0},{"OBJECT_NAME":"QIANFAN-61","OBJECT_ID":"2025-016G","EPOCH":"2026-03-05T14:45:01.370016","MEAN_MOTION":13.46648286,"ECCENTRICITY":0.0014066,"INCLINATION":88.9734,"RA_OF_ASC_NODE":94.7032,"ARG_OF_PERICENTER":94.622,"MEAN_ANOMALY":265.6536,"EPHEMERIS_TYPE":0,"CLASSIFICATION_TYPE":"U","NORAD_CAT_ID":62791,"ELEMENT_SET_NO":999,"REV_AT_EPOCH":5843,"BSTAR":-3.0832,"MEAN_MOTION_DOT":-0.01743446,"MEAN_MOTION_DDOT":0},{"OBJECT_NAME":"QIANFAN-62","OBJECT_ID":"2025-016H","EPOCH":"2026-03-05T18:26:38.891616","MEAN_MOTION":13.50996547,"ECCENTRICITY":0.0018235,"INCLINATION":88.9684,"RA_OF_ASC_NODE":94.511,"ARG_OF_PERICENTER":102.6217,"MEAN_ANOMALY":257.6974,"EPHEMERIS_TYPE":0,"CLASSIFICATION_TYPE":"U","NORAD_CAT_ID":62792,"ELEMENT_SET_NO":999,"REV_AT_EPOCH":5844,"BSTAR":3.3071e-5,"MEAN_MOTION_DOT":3.4e-7,"MEAN_MOTION_DDOT":0},{"OBJECT_NAME":"QIANFAN-63","OBJECT_ID":"2025-016J","EPOCH":"2026-03-05T19:02:14.879328","MEAN_MOTION":13.50995212,"ECCENTRICITY":0.0018279,"INCLINATION":88.9691,"RA_OF_ASC_NODE":94.4655,"ARG_OF_PERICENTER":107.331,"MEAN_ANOMALY":252.9843,"EPHEMERIS_TYPE":0,"CLASSIFICATION_TYPE":"U","NORAD_CAT_ID":62793,"ELEMENT_SET_NO":999,"REV_AT_EPOCH":5848,"BSTAR":4.804e-5,"MEAN_MOTION_DOT":4.3e-7,"MEAN_MOTION_DDOT":0},{"OBJECT_NAME":"QIANFAN-64","OBJECT_ID":"2025-016K","EPOCH":"2026-03-05T18:14:52.765152","MEAN_MOTION":13.51005474,"ECCENTRICITY":0.0016237,"INCLINATION":88.9678,"RA_OF_ASC_NODE":94.4318,"ARG_OF_PERICENTER":101.0463,"MEAN_ANOMALY":259.2515,"EPHEMERIS_TYPE":0,"CLASSIFICATION_TYPE":"U","NORAD_CAT_ID":62794,"ELEMENT_SET_NO":999,"REV_AT_EPOCH":5847,"BSTAR":-3.5851e-6,"MEAN_MOTION_DOT":1.0e-7,"MEAN_MOTION_DDOT":0},{"OBJECT_NAME":"QIANFAN-65","OBJECT_ID":"2025-016L","EPOCH":"2026-03-05T18:08:49.161984","MEAN_MOTION":13.5100873,"ECCENTRICITY":0.0016088,"INCLINATION":88.9674,"RA_OF_ASC_NODE":94.4553,"ARG_OF_PERICENTER":102.5722,"MEAN_ANOMALY":257.723,"EPHEMERIS_TYPE":0,"CLASSIFICATION_TYPE":"U","NORAD_CAT_ID":62795,"ELEMENT_SET_NO":999,"REV_AT_EPOCH":5845,"BSTAR":1.9946e-5,"MEAN_MOTION_DOT":2.5e-7,"MEAN_MOTION_DDOT":0},{"OBJECT_NAME":"QIANFAN-66","OBJECT_ID":"2025-016M","EPOCH":"2026-03-05T18:50:18.156768","MEAN_MOTION":13.50996881,"ECCENTRICITY":0.0017203,"INCLINATION":88.9694,"RA_OF_ASC_NODE":94.4387,"ARG_OF_PERICENTER":98.7621,"MEAN_ANOMALY":261.5479,"EPHEMERIS_TYPE":0,"CLASSIFICATION_TYPE":"U","NORAD_CAT_ID":62796,"ELEMENT_SET_NO":999,"REV_AT_EPOCH":5850,"BSTAR":3.3051e-5,"MEAN_MOTION_DOT":3.4e-7,"MEAN_MOTION_DDOT":0},{"OBJECT_NAME":"QIANFAN-67","OBJECT_ID":"2025-016N","EPOCH":"2026-03-05T18:56:08.983968","MEAN_MOTION":13.509953,"ECCENTRICITY":0.0017147,"INCLINATION":88.9684,"RA_OF_ASC_NODE":94.4557,"ARG_OF_PERICENTER":104.7769,"MEAN_ANOMALY":255.5284,"EPHEMERIS_TYPE":0,"CLASSIFICATION_TYPE":"U","NORAD_CAT_ID":62797,"ELEMENT_SET_NO":999,"REV_AT_EPOCH":5847,"BSTAR":5.079e-5,"MEAN_MOTION_DOT":4.5e-7,"MEAN_MOTION_DDOT":0},{"OBJECT_NAME":"QIANFAN-68","OBJECT_ID":"2025-016P","EPOCH":"2026-03-05T18:44:30.006240","MEAN_MOTION":13.51005226,"ECCENTRICITY":0.0017214,"INCLINATION":88.9688,"RA_OF_ASC_NODE":94.5048,"ARG_OF_PERICENTER":103.269,"MEAN_ANOMALY":257.0383,"EPHEMERIS_TYPE":0,"CLASSIFICATION_TYPE":"U","NORAD_CAT_ID":62798,"ELEMENT_SET_NO":999,"REV_AT_EPOCH":5845,"BSTAR":4.0673e-5,"MEAN_MOTION_DOT":3.9e-7,"MEAN_MOTION_DDOT":0}]
